GLOBALSTAR M043         
1 25874U 99041C   24189.30982000 -.00000081  00000+0 -38885-3 0  9990
2 25874  51.9364 168.4580 0012153  81.0041  61.7695 11.25680282 84038
GLOBALSTAR M028         
1 25875U 99041D   24189.27739928 -.00000087  00000+0  90410-4 0  9994
2 25875  51.9607 141.5061 0063785  42.3132 318.2626 12.50558987147021
GLOBALSTAR M024         
1 25883U 99043A   24189.88900009 -.00000035  00000+0  10722-2 0  9991
2 25883  52.0022  77.4732 0000910 283.1255 159.9157 11.10156826 76657
GLOBALSTAR M027         
1 25884U 99043B   24189.82431969 -.00000126  00000+0 -23554-2 0  9999
2 25884  52.0186 145.8446 0020888 154.9778 205.2032 11.04368787103238
GLOBALSTAR M054         
1 25885U 99043C   24189.84707817  .00000036  00000+0  27362-2 0  9999
2 25885  52.0162 330.8814 0004278 315.7419 201.3527 11.39206711 80137
GLOBALSTAR M053         
1 25886U 99043D   24189.53263676 -.00000026  00000+0  12259-2 0  9995
2 25886  51.9972 259.6099 0003900 213.5439 254.0173 11.27656673 80568
GLOBALSTAR M050         
1 25908U 99049B   24190.19999375 -.00000107  00000+0 -21225-3 0  9997
2 25908  52.0011 341.0728 0009748  69.7216 102.0337 12.07435732111361
GLOBALSTAR M055         
1 25910U 99049D   24190.19022235 -.00000037  00000+0  49344-3 0  9995
2 25910  52.0013 264.1839 0007538 137.9609 222.1822 12.29404181126191
GLOBALSTAR M057         
1 25943U 99058A   24189.64915536 -.00000044  00000+0  44440-3 0  9994
2 25943  51.9969 245.9733 0001901  30.5012 329.5947 12.24788985124784
GLOBALSTAR M059         
1 25944U 99058B   24189.83339378 -.00000014  00000+0  89351-3 0  9997
2 25944  52.0029  58.7480 0001053  33.7719  73.2553 11.99964419121456
GLOBALSTAR M056         
1 25945U 99058C   24190.13242953 -.00000128  00000+0 -46950-3 0  9990
2 25945  51.9976  68.7328 0000360 140.5601 341.5819 12.04775081121206
GLOBALSTAR M031         
1 25946U 99058D   24189.94351476 -.00000073  00000+0  17438-3 0  9996
2 25946  51.9979 342.1828 0001618 168.2371 342.3842 12.16010648122909
GLOBALSTAR M034         
1 25962U 99062B   24190.21469259 -.00000089  00000+0 -12667-3 0  9997
2 25962  51.9836 185.5040 0013651 112.0944 331.5439 11.79428750 97781
GLOBALSTAR M029         
1 25963U 99062C   24189.83499481 -.00000061  00000+0  31366-3 0  9990
2 25963  51.9819 307.0776 0003166 153.5739  21.9419 11.99879853127836
GLOBALSTAR M063         
1 26081U 00008A   24189.59767130 -.00000032  00000+0  73571-3 0  9998
2 26081  51.9965 299.0886 0004270  20.9216  80.1513 11.86157068116682
GLOBALSTAR M062         
1 26082U 00008B   24189.94287763  .00000052  00000+0  10769-2 0  9997
2 26082  51.9862  28.0805 0007867  95.5503  51.7562 12.43441394116299
GLOBALSTAR M060         
1 26083U 00008C   24189.54803355 -.00000053  00000+0  37497-3 0  9995
2 26083  52.0035 300.4936 0003994 144.4348 299.9940 12.17635732110386
GLOBALSTAR M064         
1 26084U 00008D   24189.83818094 -.00000074  00000+0  12514-3 0  9990
2 26084  52.0045  41.3416 0002153  98.4689 261.6388 11.88520126126267
GLOBALSTAR M069         
1 31573U 07020C   24189.39556024 -.00000112  00000+0 -44591-4 0  9998
2 31573  51.9933 151.4719 0000657 335.7479 192.7253 12.62276560791008
GLOBALSTAR M070         
1 32264U 07048B   24189.85858900 -.00000075  00000+0  15979-3 0  9999
2 32264  51.9751  97.4488 0000959  56.6346  22.7549 12.62295325771168
